GLOBALSTAR M045 [-]     
1 25676U 99019A   24021.26037066 -.00000034  00000+0  52445-3 0  9993
2 25676  51.9998 327.1784 0000686 337.0174 171.3187 12.27027483130420
GLOBALSTAR M019 [-]     
1 25677U 99019B   24021.26976373  .00000013  00000+0  10732-2 0  9995
2 25677  51.9881  61.4321 0000571  27.4289  50.7060 12.13848960122851
GLOBALSTAR M042 [-]     
1 25679U 99019D   24021.24124602 -.00000046  00000+0  43317-3 0  9998
2 25679  52.0024  58.9768 0002652 322.4094 112.8358 12.22054638122541
GLOBALSTAR M025 [-]     
1 25770U 99031A   24021.06920529 -.00000056  00000+0  36287-3 0  9995
2 25770  51.9805 267.9416 0002001  33.3696 115.4411 11.22548711424086
GLOBALSTAR M049 [-]     
1 25771U 99031B   24020.94178434 -.00000035  00000+0  10354-2 0  9995
2 25771  51.9869 277.2067 0002281 229.2174 130.8424 11.12102597 60325
GLOBALSTAR M047 [-]     
1 25772U 99031C   24021.25654202 -.00000051  00000+0  52795-3 0  9997
2 25772  51.9865 322.4648 0016621 100.3408 259.9272 11.31917894413020
GLOBALSTAR M052 [-]     
1 25773U 99031D   24021.28782713 -.00000030  00000+0  12026-2 0  9999
2 25773  51.9891  32.3034 0002463  45.6484  44.3104 11.15047726421298
